QIANFAN-49              
1 62250U 24232P   25324.76898650  .00000186  00000+0  26972-3 0  9996
2 62250  89.0045  43.4490 0012539 254.4112 105.5655 13.50977792 64878
QIANFAN-50              
1 62251U 24232Q   25324.79366803  .00000180  00000+0  26030-3 0  9999
2 62251  89.0050  43.4534 0014173 256.3713 103.5860 13.50978330 64907
QIANFAN-51              
1 62252U 24232R   25324.77721385  .00000190  00000+0  27638-3 0  9994
2 62252  89.0044  43.4502 0011597 259.8844 100.0999 13.50976116 64899
QIANFAN-52              
1 62253U 24232S   25324.80603375  .00000183  00000+0  26473-3 0  9995
2 62253  89.0041  43.3219 0013741 251.6952 108.2705 13.50977159 64987
QIANFAN-53              
1 62254U 24232T   25324.78543347  .00000157  00000+0  22560-3 0  9999
2 62254  89.0048  43.4268 0012607 252.6050 107.3723 13.50972315 64945
QIANFAN-54              
1 62255U 24232U   25324.82662878  .00000166  00000+0  23865-3 0  9995
2 62255  89.0039  43.1030 0000438   0.5530 359.5622 13.50972500 96458
QIANFAN-55              
1 62785U 25016A   25324.77882477  .00000097  00000+0  13103-3 0  9994
2 62785  88.9763 105.4751 0018468  55.8111 304.4787 13.50980915 44228
QIANFAN-56              
1 62786U 25016B   25324.86918178  .00000090  00000+0  12107-3 0  9999
2 62786  88.9737 105.3081 0017162  58.0953 302.1865 13.50981587 44288
